CCSDS_OMM_VERS = 2.0
CREATION_DATE  = 
ORIGINATOR     = 

OBJECT_NAME    = ALOS-2
OBJECT_ID      = 2014-029A
CENTER_NAME    = EARTH
REF_FRAME      = TEME
TIME_SYSTEM    = UTC
MEAN_ELEMENT_THEORY = SGP/SGP4

EPOCH          = 2026-03-26T05:18:21.460608
MEAN_MOTION    = 14.79435223
ECCENTRICITY   = .0001871
INCLINATION    = 97.9186
RA_OF_ASC_NODE = 183.5773
ARG_OF_PERICENTER = 106.0843
MEAN_ANOMALY   = 254.0575

EPHEMERIS_TYPE = 0
CLASSIFICATION_TYPE = U
NORAD_CAT_ID   = 39766
ELEMENT_SET_NO = 999
REV_AT_EPOCH   = 63931
BSTAR          = .19428E-3
MEAN_MOTION_DOT = .1399E-4
MEAN_MOTION_DDOT = 0

CCSDS_OMM_VERS = 2.0
CREATION_DATE  = 
ORIGINATOR     = 

OBJECT_NAME    = YAOGAN-29
OBJECT_ID      = 2015-069A
CENTER_NAME    = EARTH
REF_FRAME      = TEME
TIME_SYSTEM    = UTC
MEAN_ELEMENT_THEORY = SGP/SGP4

EPOCH          = 2026-03-26T04:33:45.397728
MEAN_MOTION    = 14.83014670
ECCENTRICITY   = .0000735
INCLINATION    = 98.0122
RA_OF_ASC_NODE = 113.6626
ARG_OF_PERICENTER = 11.5700
MEAN_ANOMALY   = 348.5530

EPHEMERIS_TYPE = 0
CLASSIFICATION_TYPE = U
NORAD_CAT_ID   = 41038
ELEMENT_SET_NO = 999
REV_AT_EPOCH   = 55832
BSTAR          = .97269E-4
MEAN_MOTION_DOT = .736E-5
MEAN_MOTION_DDOT = 0

CCSDS_OMM_VERS = 2.0
CREATION_DATE  = 
ORIGINATOR     = 

OBJECT_NAME    = ASTRO-H (HITOMI)
OBJECT_ID      = 2016-012A
CENTER_NAME    = EARTH
REF_FRAME      = TEME
TIME_SYSTEM    = UTC
MEAN_ELEMENT_THEORY = SGP/SGP4

EPOCH          = 2026-03-26T03:49:14.467008
MEAN_MOTION    = 15.10104872
ECCENTRICITY   = .0009598
INCLINATION    = 30.9988
RA_OF_ASC_NODE = 250.2576
ARG_OF_PERICENTER = 137.2680
MEAN_ANOMALY   = 222.8706

EPHEMERIS_TYPE = 0
CLASSIFICATION_TYPE = U
NORAD_CAT_ID   = 41337
ELEMENT_SET_NO = 999
REV_AT_EPOCH   = 55472
BSTAR          = .16939E-3
MEAN_MOTION_DOT = .2926E-4
MEAN_MOTION_DDOT = 0

CCSDS_OMM_VERS = 2.0
CREATION_DATE  = 
ORIGINATOR     = 

OBJECT_NAME    = HXMT (HUIYAN)
OBJECT_ID      = 2017-034A
CENTER_NAME    = EARTH
REF_FRAME      = TEME
TIME_SYSTEM    = UTC
MEAN_ELEMENT_THEORY = SGP/SGP4

EPOCH          = 2026-03-26T00:50:00.411072
MEAN_MOTION    = 15.17667489
ECCENTRICITY   = .003227
INCLINATION    = 43.0145
RA_OF_ASC_NODE = 285.7875
ARG_OF_PERICENTER = 335.7143
MEAN_ANOMALY   = 24.2183

EPHEMERIS_TYPE = 0
CLASSIFICATION_TYPE = U
NORAD_CAT_ID   = 42758
ELEMENT_SET_NO = 999
REV_AT_EPOCH   = 48502
BSTAR          = .24702E-3
MEAN_MOTION_DOT = .4892E-4
MEAN_MOTION_DDOT = 0

CCSDS_OMM_VERS = 2.0
CREATION_DATE  = 
ORIGINATOR     = 

OBJECT_NAME    = SAOCOM 1A
OBJECT_ID      = 2018-076A
CENTER_NAME    = EARTH
REF_FRAME      = TEME
TIME_SYSTEM    = UTC
MEAN_ELEMENT_THEORY = SGP/SGP4

EPOCH          = 2026-03-26T03:58:26.174208
MEAN_MOTION    = 14.82158569
ECCENTRICITY   = .0001514
INCLINATION    = 97.8906
RA_OF_ASC_NODE = 273.1053
ARG_OF_PERICENTER = 84.5798
MEAN_ANOMALY   = 275.5588

EPHEMERIS_TYPE = 0
CLASSIFICATION_TYPE = U
NORAD_CAT_ID   = 43641
ELEMENT_SET_NO = 999
REV_AT_EPOCH   = 40380
BSTAR          = .71443E-4
MEAN_MOTION_DOT = .517E-5
MEAN_MOTION_DDOT = 0

CCSDS_OMM_VERS = 2.0
CREATION_DATE  = 
ORIGINATOR     = 

OBJECT_NAME    = H-2A R/B
OBJECT_ID      = 2018-084L
CENTER_NAME    = EARTH
REF_FRAME      = TEME
TIME_SYSTEM    = UTC
MEAN_ELEMENT_THEORY = SGP/SGP4

EPOCH          = 2026-03-26T02:07:41.901888
MEAN_MOTION    = 15.42029342
ECCENTRICITY   = .0023963
INCLINATION    = 98.8711
RA_OF_ASC_NODE = 305.9886
ARG_OF_PERICENTER = 328.3028
MEAN_ANOMALY   = 31.6770

EPHEMERIS_TYPE = 0
CLASSIFICATION_TYPE = U
NORAD_CAT_ID   = 43682
ELEMENT_SET_NO = 999
REV_AT_EPOCH   = 40830
BSTAR          = .44571E-3
MEAN_MOTION_DOT = .19124E-3
MEAN_MOTION_DDOT = 0

CCSDS_OMM_VERS = 2.0
CREATION_DATE  = 
ORIGINATOR     = 

OBJECT_NAME    = SAOCOM 1B
OBJECT_ID      = 2020-059A
CENTER_NAME    = EARTH
REF_FRAME      = TEME
TIME_SYSTEM    = UTC
MEAN_ELEMENT_THEORY = SGP/SGP4

EPOCH          = 2026-03-26T04:43:24.594816
MEAN_MOTION    = 14.82151728
ECCENTRICITY   = .0001461
INCLINATION    = 97.8905
RA_OF_ASC_NODE = 272.2339
ARG_OF_PERICENTER = 86.9922
MEAN_ANOMALY   = 273.1459

EPHEMERIS_TYPE = 0
CLASSIFICATION_TYPE = U
NORAD_CAT_ID   = 46265
ELEMENT_SET_NO = 999
REV_AT_EPOCH   = 30119
BSTAR          = .31854E-4
MEAN_MOTION_DOT = .201E-5
MEAN_MOTION_DDOT = 0

CCSDS_OMM_VERS = 2.0
CREATION_DATE  = 
ORIGINATOR     = 

OBJECT_NAME    = CSS (TIANHE)
OBJECT_ID      = 2021-035A
CENTER_NAME    = EARTH
REF_FRAME      = TEME
TIME_SYSTEM    = UTC
MEAN_ELEMENT_THEORY = SGP/SGP4

EPOCH          = 2026-03-26T02:13:49.453536
MEAN_MOTION    = 15.61499401
ECCENTRICITY   = .0004388
INCLINATION    = 41.4666
RA_OF_ASC_NODE = 108.2894
ARG_OF_PERICENTER = 24.9503
MEAN_ANOMALY   = 335.1548

EPHEMERIS_TYPE = 0
CLASSIFICATION_TYPE = U
NORAD_CAT_ID   = 48274
ELEMENT_SET_NO = 999
REV_AT_EPOCH   = 28017
BSTAR          = .25951E-3
MEAN_MOTION_DOT = .22598E-3
MEAN_MOTION_DDOT = 0

CCSDS_OMM_VERS = 2.0
CREATION_DATE  = 
ORIGINATOR     = 

OBJECT_NAME    = COSMOS 2550
OBJECT_ID      = 2021-056A
CENTER_NAME    = EARTH
REF_FRAME      = TEME
TIME_SYSTEM    = UTC
MEAN_ELEMENT_THEORY = SGP/SGP4

EPOCH          = 2026-03-25T18:05:46.502016
MEAN_MOTION    = 15.33836515
ECCENTRICITY   = .00083109
INCLINATION    = 67.1434
RA_OF_ASC_NODE = 352.2897
ARG_OF_PERICENTER = 269.6174
MEAN_ANOMALY   = 90.4028

EPHEMERIS_TYPE = 0
CLASSIFICATION_TYPE = U
NORAD_CAT_ID   = 48865
ELEMENT_SET_NO = 999
REV_AT_EPOCH   = 26592
BSTAR          = .212717E-6
MEAN_MOTION_DOT = -.185E-5
MEAN_MOTION_DDOT = 0

CCSDS_OMM_VERS = 2.0
CREATION_DATE  = 
ORIGINATOR     = 

OBJECT_NAME    = CZ-2C R/B
OBJECT_ID      = 2022-058K
CENTER_NAME    = EARTH
REF_FRAME      = TEME
TIME_SYSTEM    = UTC
MEAN_ELEMENT_THEORY = SGP/SGP4

EPOCH          = 2026-03-25T18:31:59.306016
MEAN_MOTION    = 15.55377493
ECCENTRICITY   = .00415265
INCLINATION    = 50.1868
RA_OF_ASC_NODE = 235.4871
ARG_OF_PERICENTER = 269.6026
MEAN_ANOMALY   = 90.0186

EPHEMERIS_TYPE = 0
CLASSIFICATION_TYPE = U
NORAD_CAT_ID   = 52794
ELEMENT_SET_NO = 999
REV_AT_EPOCH   = 21263
BSTAR          = .52496288E-3
MEAN_MOTION_DOT = .37524E-3
MEAN_MOTION_DDOT = 0

CCSDS_OMM_VERS = 2.0
CREATION_DATE  = 
ORIGINATOR     = 

OBJECT_NAME    = CZ-2C R/B
OBJECT_ID      = 2022-132E
CENTER_NAME    = EARTH
REF_FRAME      = TEME
TIME_SYSTEM    = UTC
MEAN_ELEMENT_THEORY = SGP/SGP4

EPOCH          = 2026-03-25T22:59:09.042720
MEAN_MOTION    = 15.63359137
ECCENTRICITY   = .0018326
INCLINATION    = 97.2964
RA_OF_ASC_NODE = 88.7871
ARG_OF_PERICENTER = 38.7235
MEAN_ANOMALY   = 321.5334

EPHEMERIS_TYPE = 0
CLASSIFICATION_TYPE = U
NORAD_CAT_ID   = 54039
ELEMENT_SET_NO = 999
REV_AT_EPOCH   = 19291
BSTAR          = .47059E-3
MEAN_MOTION_DOT = .43664E-3
MEAN_MOTION_DDOT = 0

CCSDS_OMM_VERS = 2.0
CREATION_DATE  = 
ORIGINATOR     = 

OBJECT_NAME    = GSLV R/B
OBJECT_ID      = 2022-138AN
CENTER_NAME    = EARTH
REF_FRAME      = TEME
TIME_SYSTEM    = UTC
MEAN_ELEMENT_THEORY = SGP/SGP4

EPOCH          = 2026-03-26T04:00:01.501920
MEAN_MOTION    = 14.96879743
ECCENTRICITY   = .0024093
INCLINATION    = 87.3864
RA_OF_ASC_NODE = 160.8468
ARG_OF_PERICENTER = 92.3220
MEAN_ANOMALY   = 268.0770

EPHEMERIS_TYPE = 0
CLASSIFICATION_TYPE = U
NORAD_CAT_ID   = 54149
ELEMENT_SET_NO = 999
REV_AT_EPOCH   = 18639
BSTAR          = .21537E-3
MEAN_MOTION_DOT = .2512E-4
MEAN_MOTION_DDOT = 0

