ALOS-2                  
1 39766U 14029A   26085.22108172  .00001399  00000+0  19428-3 0  9999
2 39766  97.9186 183.5773 0001871 106.0843 254.0575 14.79435223639316
YAOGAN-29               
1 41038U 15069A   26085.19010877  .00000736  00000+0  97269-4 0  9993
2 41038  98.0122 113.6626 0000735  11.5700 348.5530 14.83014670558329
ASTRO-H (HITOMI)        
1 41337U 16012A   26085.15919522  .00002926  00000+0  16939-3 0  9992
2 41337  30.9988 250.2576 0009598 137.2680 222.8706 15.10104872554721
HXMT (HUIYAN)           
1 42758U 17034A   26085.03472698  .00004892  00000+0  24702-3 0  9991
2 42758  43.0145 285.7875 0032270 335.7143  24.2183 15.17667489485020
SAOCOM 1A               
1 43641U 18076A   26085.16558072  .00000517  00000+0  71443-4 0  9990
2 43641  97.8906 273.1053 0001514  84.5798 275.5588 14.82158569403806
H-2A R/B                
1 43682U 18084L   26085.08867942  .00019124  00000+0  44571-3 0  9999
2 43682  98.8711 305.9886 0023963 328.3028  31.6770 15.42029342408308
SAOCOM 1B               
1 46265U 20059A   26085.19681244  .00000201  00000+0  31854-4 0  9992
2 46265  97.8905 272.2339 0001461  86.9922 273.1459 14.82151728301193
CSS (TIANHE)            
1 48274U 21035A   26085.09293349  .00022598  00000+0  25951-3 0  9996
2 48274  41.4666 108.2894 0004388  24.9503 335.1548 15.61499401280179
COSMOS 2550             
1 48865U 21056A   26084.75401044 -.00000185  00000+0  21272-6 0  9994
2 48865  67.1434 352.2897 0008310 269.6174  90.4028 15.33836515265928
CZ-2C R/B               
1 52794U 22058K   26084.77221419  .00037524  00000+0  52496-3 0  9996
2 52794  50.1868 235.4871 0041526 269.6026  90.0186 15.55377493212633
CZ-2C R/B               
1 54039U 22132E   26084.95774355  .00043664  00000+0  47059-3 0  9996
2 54039  97.2964  88.7871 0018326  38.7235 321.5334 15.63359137192913
GSLV R/B                
1 54149U 22138AN  26085.16668405  .00002512  00000+0  21537-3 0  9996
2 54149  87.3864 160.8468 0024093  92.3220 268.0770 14.96879743186395
